"Gouv.","Lon","Lat","S/S","Adresse","Localite","Shop ","Cafeteria","Lavage","24h/24","Restaurant","Carte pétrolière","Gasoil 50","Pétrole bleu","Gaz Bouteille","GPL","Vidange","Mélange 2T","gasoil","Lubrifiants","pneumatique","diagnostique"
"Ariana","10.186004","36.853462","ARIANA","Av. HABIB BOURGUIBA","ARIANA","","Oui","Oui","Oui","","Oui","Oui","Oui","Oui","","Oui","Oui","Oui","Oui","",""
"Ariana","10.117053","36.841229","MNIHLA","CENTRE VILLE MNIHLA","MNIHLA","","","Oui","Oui","","Oui","Oui","Oui","Oui","","Oui","Oui","Oui","Oui","",""
"Ariana","10.178474","36.937992","SIDI AMOR BOUKHTIOUA","ROUTE DE RAOUED KM 10","S. A. BOUKHTIOUA","","Oui","Oui","Oui","","Oui","Oui","Oui","Oui","","Oui","Oui","Oui","Oui","",""
"Ariana","10.185726","36.876612","ARIANA (ROUTE DE RAOUED)","AVENUE FETHI ZOUHIR","ARIANA","","","","Oui","","Oui","Oui","Oui","Oui","","","Oui","Oui","Oui","",""
"Ariana","10.109773","36.906927","CEBELET BEN AMMAR","ROUTE DE BIZERTE GP8 ","CEBELET BEN AMMAR ","","","Oui","Oui","","Oui","Oui","","Oui","Oui","Oui","Oui","Oui","Oui","",""
"Ariana","10.165912","36.859347","ENNASR 1","AV. JALLOULI ","RIADH ENNASR ","","Oui","Oui","Oui","","Oui","Oui","","","","Oui","","Oui","Oui","",""
"Beja","9.189568","36.726887","BEJA ","CENTRE VILLE","BEJA ","","Oui","Oui","Oui","","Oui","Oui","Oui","Oui","","Oui","Oui","Oui","Oui","",""
"Beja","9.612007","36.648651","MEDJEZ EL BAB ","CENTRE VILLE","MEDJEZ EL BAB ","","","Oui","Oui","","Oui","Oui","Oui","Oui","","Oui","Oui","Oui","Oui","",""
"Beja","9.792091","36.655355","GRIAAT PK 29 ( DIRECTION MEDJEZ EL BAB )","AUTOROUTE A3 PK 29 DIRECTION MEDJEZ EL BAB","GRIAAT","","Oui","Oui","Oui","Oui","Oui","Oui","","","","","","Oui","Oui","",""
"Beja","9.791982","36.653606","GRIAAT pk 29 DIRECTION TUNIS","AUTOROUTE A3 pk29 DIRECTION TUNIS","GRIAAT","","Oui","Oui","Oui","Oui","Oui","Oui","","","","","","Oui","Oui","",""
"Beja","9.662602 ","36.534112","GUEBELLAT","ROUTE DE BOUARADA","GUEBELLAT","","Oui","Oui","Oui","","Oui","Oui","","","","Oui","Oui","Oui","Oui","",""
"Beja","9.109417","36.599919","SIDI SMAIL","CENTRE VILLE","SIDI SMAIL","","Oui","Oui","Oui","","Oui","Oui","Oui","Oui","","Oui","Oui","Oui","Oui","",""
"Beja","9.505850","36.577876","SLOUGHIA","CENTRE VILLE","SLOUGHIA","","Oui","Oui","Oui","","Oui","Oui","Oui","Oui","","Oui","Oui","Oui","Oui","",""
"Beja","9.076396","36.762864","AMDOUN","ROUTE DE AIN DRAHAM","AMDOUN","","","Oui","Oui","","Oui","Oui","Oui","Oui","","Oui","Oui","Oui","Oui","",""
"Beja","9.671217","36.649179","IDENE","ROUTE MEDJEZ EL BAB","IDENE","","","","Oui","","Oui","Oui","","","","","Oui","Oui","Oui","",""
"Ben Arous","10.222910","36.724006","BIR EL KASAA ","MARCHE DE GROS","BIR EL KASAA ","","","Oui","Oui","","Oui","Oui","","Oui","","Oui","Oui","Oui","Oui","",""
"Ben Arous","10.397928","36.702905","BORJ CEDRIA","BORJ CEDRIA","BORJ CEDRIA","","Oui","Oui","Oui","","Oui","Oui","Oui","Oui","","Oui","Oui","Oui","Oui","",""
"Ben Arous","10.164848","36.693158","FOUCHANA","CENTRE VILLE ","FOUCHANA","","","Oui","Oui","","Oui","Oui","Oui","Oui","Oui","Oui","Oui","Oui","Oui","",""
"Ben Arous","10.309033","36.735098","BOU MHEL","CENTRE VILLE ","BOU MHEL","","Oui","Oui","Oui","","Oui","Oui","Oui","Oui","","Oui","Oui","Oui","Oui","",""
"Ben Arous","10.240038","36.739284","BEN AROUS (MC 34)","MC34 - YASMINET","BEN AROUS","","","Oui","Oui","","Oui","Oui","Oui","Oui","","Oui","Oui","Oui","Oui","",""
"Ben Arous","10.279186","36.801960","RADES PORT","PORT DE RADES ","RADES","","Oui","Oui","Oui","Oui","Oui","Oui","Oui","Oui","","Oui","Oui","Oui","Oui","",""
"Ben Arous","10.210451","36.729299","EL MOUROUJ","MOROUJ 3","EL MOUROUJ","","","Oui","Oui","","Oui","Oui","Oui","Oui","","Oui","Oui","Oui","Oui","",""
"Ben Arous","10.348798","36.722769","HAMMAM LIF","GP1 HAMMAM LIF ","HAMMAM LIF","","Oui","Oui","Oui","","Oui","Oui","Oui","Oui","","Oui","Oui","Oui","Oui","",""
"Bizerte","9.872611","37.272829","BIZERTE","CENTRE VILLE","BIZERTE","","Oui","Oui","Oui","","Oui","Oui","Oui","Oui","","Oui","Oui","Oui","Oui","",""
"Bizerte","9.889922","37.262454","ZARZOUNA","ROUTE DE TUNIS","ZARZOUNA","","Oui","Oui","Oui","","Oui","Oui","Oui","Oui","Oui","Oui","Oui","Oui","Oui","",""
"Bizerte","9.793115","37.153784","MENZEL BOURGUIBA","CENTRE VILLE ","MENZEL BOURGUIBA","Oui","","Oui","Oui","","Oui","Oui","Oui","Oui","","Oui","Oui","Oui","Oui","",""
"Bizerte","9.674961","37.038156","MATEUR","CENTRE VILLE ","MATEUR","","","Oui","Oui","","Oui","Oui","Oui","Oui","","Oui","Oui","Oui","Oui","",""
"Bizerte","10.138212","37.161824","GHAR EL MELH","ROUTE DE TUNIS","GHAR EL MELH","","Oui","Oui","Oui","","Oui","Oui","Oui","Oui","","Oui","Oui","Oui","Oui","",""
"Bizerte","10.098062","37.224194","RAS DJEBEL","ROUTE DE BIZERTE","RAS DJEBEL","","","Oui","Oui","","Oui","Oui","Oui","Oui","","Oui","Oui","Oui","Oui","",""
"Bizerte","9.982435","37.150263","KHETMINE","ROUTE DE BIZERTE","KHETMINE","","","Oui","Oui","","Oui","Oui","Oui","Oui","","","Oui","Oui","Oui","",""
"Bizerte","9.231010","37.056805","SEJNANE","ROUTE DE TABARKA","SEJNANE","","","","Oui","","Oui","","Oui","","","","Oui","Oui","Oui","",""
"Gabès","10.086190","33.883839","GABES GP1","GABES GP 1 VERS GHANNOUCHE","GABES","","Oui","Oui","Oui","","Oui","Oui","","","","Oui","Oui","Oui","Oui","",""
"Gabès","10.120423","33.835583","TEBOULBOU","CENTRE VILLE ","TEBOULBOU","","Oui","Oui","Oui","","Oui","Oui","Oui","Oui","","Oui","Oui","Oui","Oui","",""
"Gabès","9.595223","34.231366","MENZEL EL HABIB","CENTRE VILLE ","MENZEL EL HABIB","","","Oui","Oui","","Oui","Oui","Oui","Oui","","","Oui","Oui","Oui","",""
"Gabès","10.205446","33.757029"," KETTANA","ROUTE DE MEDENINE GP1"," KETTANA","","","Oui","Oui","","Oui","Oui","Oui","Oui","","Oui","Oui","Oui","Oui","",""
"Gabès","9.975200","33.982609","OUEDHREF","CENTRE VILLE ","OUEDHREF","","","Oui","Oui","","Oui","Oui","Oui","Oui","Oui","Oui","Oui","Oui","Oui","",""
"Gabès","10.282813","33.637490","MARETH","ROUTE DE MEDENINE ","MARETH","","Oui","Oui","Oui","","Oui","Oui","","Oui","Oui","Oui","Oui","Oui","Oui","",""
"Gabès","10.093996","33.887885","GABES VILLE ","CENTRE VILLE ","GABES VILLE ","","","","Oui","","Oui","Oui","Oui","Oui","","","Oui","Oui","Oui","",""
"Gabès","10.073756","33.899050","GHANNOUCHE","ZONE INDUSTRIELLE","GHANNOUCHE","","","","","","","","","","Oui","","","","Oui","",""
"Gabès","9.811010","33.896234","EL HAMMA","CENTRE VILLE ","EL HAMMA","","Oui","Oui","Oui","","Oui","Oui","Oui","Oui","","Oui","Oui","Oui","Oui","",""
"Gafsa","8.950014","34.339058","EL GUETTAR","CENTRE VILLE ","EL GUETTAR","","","Oui","Oui","","Oui","Oui","Oui","Oui","","Oui","Oui","Oui","Oui","",""
"Gafsa","8.401687","34.316011","METLAOUI","CENTRE VILLE ","METLAOUI","","","Oui","Oui","","Oui","Oui","Oui","Oui","","","Oui","Oui","Oui","",""
"Gafsa","8.792322","34.414980","GAFSA VILLE","CENTRE VILLE","GAFSA VILLE","","","Oui","Oui","","Oui","Oui","Oui","","","Oui","Oui","Oui","Oui","",""
"Gafsa","8.783114","34.731545","SIDI AICH","CENTRE VILLE","SIDI AICH","","","Oui","Oui","","Oui","Oui","Oui","Oui","","Oui","Oui","Oui","Oui","",""
"Gafsa","8.270247","34.491612","MOULARES","CENTRE VILLE","MOULARES","","","Oui","Oui","","Oui","Oui","Oui","Oui","","Oui","Oui","Oui","Oui","",""
"Gafsa"," 8.762754","34.422703","GAFSA ROUTE DE TOZEUR","ROUTE DE TOZEUR","GAFSA ","","","Oui","Oui","","Oui","Oui","Oui","Oui","Oui","Oui","Oui","Oui","Oui","",""
"Jendouba","8.986109","36.959628","OUCHTATA","ROUTE DE TABARKA GP7 ","OUCHTATA ","","Oui","Oui","Oui","","Oui","Oui","Oui","Oui","","Oui","Oui","Oui","Oui","",""
"Jendouba","8.787436","36.503780","JENDOUBA VILLE","CENTRE VILLE","JENDOUBA","","","Oui","Oui","","Oui","Oui","Oui","Oui","","Oui","Oui","Oui","Oui","",""
"Jendouba"," 8.759338","36.946075","TABARKA","ROUTE DE AIN DRAHAM","TABARKA","","","Oui","Oui","","Oui","Oui","Oui","","","Oui","Oui","Oui","Oui","",""
"Jendouba","8.755193","36.518532","JENDOUBA GP17","ROUTE DE AIN DRAHAM","JENDOUBA ","","","Oui","Oui","","Oui","Oui","Oui","","","Oui","Oui","Oui","Oui","",""
"Jendouba","8.929547","36.700158","BALTA","BALTA","BALTA","","Oui","Oui","Oui","","Oui","Oui","Oui","Oui","","","Oui","Oui","Oui","",""
"Jendouba","8.980596","36.613866","BOUSSALEM","BOUSSALEM","BOUSSALEM","","Oui","Oui","Oui","Oui","Oui","Oui","Oui","Oui","","Oui","Oui","Oui","Oui","",""
"Kairouan","9.517888","35.402329","HAJEB EL AYOUN ","ROUTE DE KAIROUAN","HAJEB EL AYOUN ","Oui","Oui","Oui","Oui","Oui","Oui","Oui","","Oui","","","","Oui","Oui","",""
"Kairouan","9.562377","35.618686","EL ALAA","CENTRE VILLE","EL ALAA","","","Oui","Oui","","Oui","Oui","Oui","Oui","","Oui","Oui","Oui","Oui","",""
"Kairouan","9.669131","35.638578","HAFFOUZ","CENTRE VILLE","HAFFOUZ","","","Oui","Oui","","Oui","Oui","Oui","Oui","","Oui","Oui","Oui","Oui","",""
"Kairouan","10.094479","35.674179","KAIROUAN","CENTRE VILLE","KAIROUAN","","Oui","Oui","Oui","","Oui","Oui","Oui","","","Oui","Oui","Oui","Oui","",""
"Kairouan","10.047623","35.388565","S.A.BOU HADJILA","ROUTE GP2","S.A.BOU HADJILA","","","","Oui","","Oui","Oui","Oui","","","","Oui","Oui","Oui","",""
"Kairouan","9.840092","35.344217","NASRALLAH","MC 98","NASRALLAH","","","Oui","Oui","","Oui","Oui","Oui","Oui","","Oui","Oui","Oui","Oui","",""
"Kairouan","10.000110","35.712659","EL BATEN","ROUTE GP3","EL BATEN","Oui","","Oui","Oui","","Oui","Oui","Oui","Oui","","Oui","Oui","Oui","Oui","",""
"Kairouan","9.854299","35.426992","MENZEL MEHIRI","ROUTE DE KAIROUAN MC98","MENZEL MEHIRI","","","","Oui","","Oui","Oui","Oui","","","","Oui","Oui","Oui","",""
"Kairouan","10.033807","35.112898","CHERARDA","CHERARDA GP2 ROUTE KAIROUAN","CHERARDA","Oui","Oui","Oui","Oui","","Oui","Oui","Oui","","","Oui","Oui","Oui","Oui","",""
"Kasserine","8.819557","35.168204","KASSERINE","CENTRE VILLE","KASSERINE","","Oui","Oui","Oui","","Oui","Oui","Oui","Oui","","Oui","Oui","Oui","Oui","",""
"Kasserine","8.570283","34.947754","FERIANA","CENTRE VILLE","FERIANA","","","Oui","Oui","","Oui","Oui","Oui","","","Oui","Oui","Oui","Oui","",""
"Kasserine","8.669227","35.578240","THALA","CENTRE VILLE","THALA","","","Oui","Oui","","Oui","Oui","Oui","Oui","","Oui","Oui","Oui","Oui","",""
"Kasserine","8.522113","34.747496","M.BEL ABBES","CENTRE VILLE","M.BEL ABBES","","","Oui","Oui","","Oui","Oui","Oui","","","Oui","Oui","Oui","Oui","",""
"Kasserine","8.630080","35.352770","FOUSSANA","CENTRE VILLE","FOUSSANA","","Oui","Oui","Oui","","Oui","Oui","Oui","Oui","","Oui","Oui","Oui","Oui","",""
"Kasserine","8.732769","35.630899","SIDI SHIL","CENTRE VILLE","SIDI SHIL","","","","Oui","","Oui","","Oui","","","","Oui","Oui","","",""
"Kasserine","9.130929","35.230268","SBEITLA","CENTRE VILLE","SBEITLA","","Oui","Oui","Oui","","Oui","Oui","Oui","Oui","","Oui","Oui","Oui","Oui","",""
"Kasserine","8.886212","35.538929","EL AYOUN","CENTRE VILLE","EL AYOUN","","","","Oui","","Oui","Oui","Oui","","","","Oui","Oui","","",""
"Kasserine","9.074414","35.549716","SBIBA","CENTRE VILLE","SBIBA","","","Oui","Oui","","Oui","Oui","Oui","","","Oui","Oui","Oui","Oui","",""
"Kebili","8.974633","33.716297","KEBILI","CENTRE VILLE","KEBILI","","Oui","Oui","Oui","","Oui","Oui","Oui","","","Oui","Oui","Oui","Oui","",""
"Kebili","9.022988","33.474843","DOUZ","ROUTE DE KEBILI","DOUZ","","","Oui","Oui","","Oui","Oui","Oui","","","","Oui","Oui","Oui","",""
"Kebili","8.955396","33.714961","ROUTE EL MANSOURA","ROUTE EL MANSOURA","KEBILI","","","","Oui","","Oui","Oui","","Oui","Oui","","Oui","Oui","Oui","",""
"Kebili","","","SOUK LAHAD","SOUK LAHAD","SOUK LAHAD","","","","","","","","Non encore construite","","","","","","","",""
"Kebili","8.686351","33.361762","EL FAOUAR","EL FAOUAR","KEBILI","","","Oui","Oui","","Oui","Oui","Oui","Oui","","Oui","Oui","Oui","Oui","",""
"Kef","8.830930","35.945687","DAHMANI","CENTRE VILLE","DAHMANI","","","Oui","Oui","Oui","Oui","Oui","Oui","Oui","","Oui","Oui","Oui","Oui","",""
"Kef","8.705172","36.170026","LE KEF","CENTRE VILLE","LE KEF","","Oui","Oui","Oui","","Oui","Oui","Oui","Oui","","Oui","Oui","Oui","Oui","",""
"Kef","9.021843","36.072087","LE SERS","CENTRE VILLE","LE SERS","","","Oui","Oui","","Oui","Oui","Oui","Oui","","Oui","Oui","Oui","Oui","",""
"Kef","8.357239","36.215737","SAKIET S.YOUSSEF","ROUTE DU KEF","SAKIET S.YOUSSEF","","Oui","Oui","Oui","","Oui","","Oui","Oui","","Oui","Oui","Oui","Oui","",""
"Kef","8.630530","35.844825","DJERISSA","CENTRE VILLE","DJERISSA","","","Oui","Oui","","Oui","","Oui","","","Oui","Oui","Oui","Oui","",""
"Kef","8.590646","36.342648","TOUIREF","ROUTE DE JENDOUBA","TOUIREF","","","Oui","Oui","","Oui","Oui","Oui","","","Oui","Oui","Oui","Oui","",""
"Kef","8.895929","35.889729","EL KSOUR","EL KSOUR","DAHMANI","","Oui","Oui","Oui","","Oui","Oui","Oui","Oui","","Oui","Oui","Oui","Oui","",""
"Mahdia","10.552357","35.347376","SOUASSI","CENTRE VILLE","SOUASSI","Oui","Oui","Oui","Oui","","Oui","Oui","Oui","","","Oui","Oui","Oui","Oui","",""
"Mahdia","10.320308","35.489010","OULED CHAMEKH","CENTRE VILLE","OULED CHAMEKH","Oui","Oui","Oui","Oui","","Oui","Oui","Oui","","","Oui","Oui","Oui","Oui","",""
"Mahdia","10.279477","35.184344","MENZEL HACHED","CENTRE VILLE","MENZEL HACHED","","Oui","Oui","Oui","","Oui","Oui","Oui","","","","Oui","Oui","Oui","",""
"Mahdia","10.931969","35.381117","SIDI ALOUENE","CENTRE VILLE","SIDI ALOUENE","","","Oui","Oui","","Oui","Oui","Oui","","","Oui","Oui","Oui","Oui","",""
"Mahdia","11.046364","35.474104","REJICHE","ROUTE DE MAHDIA","REJICHE","","Oui","Oui","Oui","","Oui","Oui","Oui","","","Oui","Oui","Oui","Oui","",""
"Mahdia","10.976846","35.414393","KSOUR ESSEF (ROUTE D'EL DJEM)","ROUTE D'EL DJEM","KSOUR ESSEF","","Oui","Oui","Oui","","Oui","Oui","Oui","","","Oui","Oui","Oui","Oui","",""
"Mahdia","10.696304","35.313573","EL DJEM","ROUTE DE M'SAKEN","EL DJEM","Oui","Oui","Oui","Oui","","Oui","Oui","","","","Oui","Oui","Oui","Oui","",""
"Mahdia","11.084878","35.249818","CHEBBA","ROUTE DE KSOUR ESSEF","CHEBBA","","","Oui","Oui","","Oui","Oui","Oui","Oui","","Oui","Oui","Oui","Oui","",""
"Mahdia","11.039367","35.167468","MELLOULECH","ROUTE DE CHEBBA","MELLOULECH","","Oui","Oui","Oui","","Oui","Oui","Oui","","","Oui","Oui","Oui","Oui","",""
"Mahdia","11.000955","35.408935","KSOUR ESSEF ( ROUTE DE SFAOui)","ROUTE MC 82","KSOUR ESSEF ","","Oui","Oui","Oui","","Oui","Oui","Oui","","","Oui","Oui","Oui","Oui","",""
"Manouba","10.117274","36.803350","DEN DEN","CENTRE VILLE","DEN DEN","Oui","Oui","Oui","Oui","","Oui","Oui","","Oui","","Oui","","Oui","Oui","",""
"Manouba","9.877787","36.711525","BORJ EL AMRI","ROUTE GP5","BORJ EL AMRI","","Oui","Oui","Oui","","Oui","Oui","Oui","Oui","","Oui","Oui","Oui","Oui","",""
"Manouba","10.102916","36.816429","KSAR SAID","ROUTE DE OUED ELLIL","KSAR SAID","","","Oui","Oui","","Oui","Oui","Oui","","","Oui","Oui","Oui","Oui","",""
"Medenine","10.486968","33.348752","MEDENINE","CENTRE VILLE","MEDENINE","","","Oui","Oui","","Oui","Oui","","","","Oui","","Oui","Oui","",""
"Medenine","11.217315","33.140028","BEN GUERDANE","CENTRE VILLE","BEN GUERDANE","","","Oui","Oui","","Oui","Oui","Oui","Oui","","Oui","","Oui","Oui","",""
"Medenine","10.858800","33.872056","HOUMT SOUK","CENTRE VILLE","DJERBA","","Oui","Oui","Oui","","Oui","Oui","Oui","Oui","","Oui","Oui","Oui","Oui","",""
"Medenine","10.614902","33.363933","HASSI AMOR","CENTRE VILLE","HASSI AMOR","","","Oui","Oui","","Oui","Oui","Oui","Oui","","Oui","Oui","Oui","Oui","",""
"Medenine","10.731705","33.697262","JORF DJERBA","ROUTE DE GABES","JORF DJERBA","","","Oui","Oui","","Oui","Oui","Oui","Oui","","Oui","Oui","Oui","Oui","",""
"Medenine","10.947892","33.627252","EL KANTARA ZARZIS","ROUTE DE JERBA","EL KANTARA ZARZIS","","Oui","Oui","Oui","Oui","Oui","Oui","","","","Oui","","Oui","Oui","",""
"Medenine","11.092181","33.498091","ZARZIS","CENTRE VILLE","ZARZIS","","Oui","Oui","Oui","","Oui","Oui","Oui","Oui","","Oui","Oui","Oui","Oui","",""
"Medenine","10.933331","33.839084","SEDGHIANE","DJERBA SEDGHIANE","DJERBA","Oui","Oui","Oui","Oui","","Oui","Oui","","Oui","Oui","Oui","","Oui","Oui","",""
"Monastir","10.827747","35.771356","MONASTIR","CENTRE VILLE","MONASTIR","","Oui","Oui","Oui","","Oui","Oui","Oui","","","Oui","Oui","Oui","Oui","",""
"Monastir","10.791877","35.692583","BEMBLA","CENTRE VILLE","BEMBLA","Oui","Oui","Oui","Oui","","Oui","Oui","Oui","","","Oui","Oui","Oui","Oui","",""
"Monastir","10.874314","35.661039","KSAR HELAL","ROUTE BEMBLA - MOKNINE","KSAR HELAL","","Oui","Oui","Oui","","Oui","Oui","","Oui","","Oui","Oui","Oui","Oui","",""
"Monastir","10.896202","35.637485","MOKNINE","CENTRE VILLE","MOKNINE","Oui","","Oui","Oui","","Oui","Oui","Oui","Oui","","Oui","Oui","Oui","Oui","",""
"Monastir","10.752559","35.610616","JEMMAL","ROUTE DE ZARMEDINE","JEMMAL","Oui","","Oui","Oui","","Oui","Oui","Oui","","","Oui","Oui","Oui","Oui","",""
"Monastir","10.819285","35.630465","TOUZA","ROUTE MOKNINE-JEMMEL","TOUZA","","","Oui","Oui","","Oui","Oui","Oui","Oui","","Oui","Oui","Oui","Oui","",""
"Monastir","10.667566","35.715180","OUERDANINE","ROUTE DE M'SAKEN","OUERDANINE","","","Oui","Oui","","Oui","Oui","Oui","","","Oui","Oui","Oui","Oui","",""
"Monastir","10.915396","35.532920","SIDI BENNOUR","ROUTE DE MAHDIA","SIDI BENNOUR","","Oui","Oui","Oui","","Oui","Oui","Oui","","Oui","Oui","Oui","Oui","Oui","",""
"Nabeul","10.730737","36.457619","NABEUL","CENTRE VILLE","NABEUL","Oui","Oui","Oui","Oui","","Oui","Oui","Oui","","","Oui","Oui","Oui","Oui","",""
"Nabeul","11.007963","36.923968","AZMOUR","CENTRE VILLE","AZMOUR","","","","Oui","","Oui","Oui","Oui","Oui","","","Oui","Oui","Oui","",""
"Nabeul","10.499663","36.598350","GROMBALIA","CENTRE VILLE","GROMBALIA","","","Oui","Oui","","Oui","Oui","Oui","Oui","","Oui","Oui","Oui","Oui","",""
"Nabeul","10.858336","36.572840","KORBA","CENTRE VILLE","KORBA","","Oui","Oui","Oui","","Oui","Oui","Oui","","","Oui","Oui","Oui","Oui","",""
"Nabeul","10.514692","36.690180","SOLIMAN","ROUTE DE BENI KHALLED","SOLIMAN","","","Oui","Oui","","Oui","Oui","Oui","Oui","","Oui","Oui","Oui","Oui","",""
"Nabeul","10.801129","36.473330","MAAMOURA","CENTRE VILLE","MAAMOURA","","","","Oui","","Oui","Oui","","Oui","","","Oui","Oui","Oui","",""
"Nabeul","10.673052","36.426981","EL MRAZKA","ROUTE DE NABEUL","HAMMAMET","","Oui","Oui","Oui","","Oui","Oui","Oui","","","Oui","Oui","Oui","Oui","",""
"Nabeul","10.848693","36.896692","TOZOGHRANE","ROUTE DE HAOUARIA","TOZOGHRANE","","","Oui","Oui","","Oui","Oui","Oui","Oui","","Oui","Oui","Oui","Oui","",""
"Nabeul","11.048776","36.971651","DAR ALLOUCHE ","CENTRE VILLE","DAR ALLOUCHE ","","","Oui","Oui","","Oui","Oui","Oui","Oui","","Oui","Oui","Oui","Oui","",""
"Nabeul","10.612144","36.827632","DOUELA","POINT DE RAVITAILLEMENT ROUTIER DOUALA","NABEUL","","","","","","","","Oui","Oui","","","","Oui","","",""
"Nabeul","10.558321","36.522571","BOUARGOUB","ROUTE DE GROMBALIA","BOUARGOUB","","Oui","Oui","Oui","Oui","Oui","Oui","Oui","","","Oui","","Oui","Oui","",""
"Nabeul","10.589514","36.653068","BENI KHALLED ","CENTRE VILLE","BENI KHALLED ","","","Oui","Oui","","Oui","Oui","Oui","Oui","","Oui","Oui","Oui","Oui","",""
"Nabeul","10.973224","37.032534","MENZEL SALEM","ROUTE DE HAOUARIA","MENZEL SALEM","","","Oui","Oui","","Oui","Oui","Oui","Oui","","Oui","Oui","Oui","Oui","",""
"Nabeul","11.001235","36.783179","MENZEL TEMIME","ROUTE DE KELIBIA","MENZEL TEMIME","","","Oui","Oui","","Oui","Oui","Oui","Oui","","Oui","Oui","Oui","Oui","",""
"SfaOui","10.069507","34.298917","SKHIRA","ROUTE DE GABES","SKHIRA","","","Oui","Oui","","Oui","Oui","Oui","Oui","","Oui","Oui","Oui","Oui","",""
"SfaOui","10.211459","34.493360","GHRAIBA","CENTRE VILLE","GHRAIBA","","Oui","Oui","Oui","","Oui","Oui","Oui","Oui","","Oui","Oui","Oui","Oui","",""
"SfaOui","10.093529","34.739416","BIR ALI BEN KHELIFA","ROUTE DE SKHIRA","BIR ALI BEN KHELIFA","","","Oui","Oui","","Oui","Oui","Oui","Oui","","Oui","Oui","Oui","Oui","",""
"SfaOui"," 11.203380","34.705836","KERKENNAH","ERRAMLA","KERKENNAH","","","Oui","Oui","","Oui","Oui","Oui","Oui","","Oui","Oui","Oui","Oui","",""
"SfaOui","10.371581","34.969740","MENZEL CHAKER","ROUTE GP13 KM 45","MENZEL CHAKER","","","Oui","Oui","","Oui","Oui","Oui","","","Oui","Oui","Oui","Oui","",""
"SfaOui","10.762053","34.753496","SFAOui GP1","ROUTE DE TUNIS KM 1","SFAOui","","","Oui","Oui","","Oui","Oui","Oui","Oui","","Oui","Oui","Oui","Oui","",""
"SfaOui","10.759861","34.747318","TENIOUR","ROUTE DE TUNIS KM 0.5","SFAOui","","Oui","Oui","Oui","","Oui","Oui","Oui","Oui","","Oui","Oui","Oui","Oui","",""
"SfaOui","10.751826","34.733933","PIC-VILLE","PIC-VILLE","SFAOui","","Oui","Oui","Oui","","Oui","Oui","Oui","Oui","","Oui","Oui","Oui","Oui","",""
"SfaOui","10.906735","35.021178","JEBENIANA","ROUTE DE MAHDIA","JEBENIANA","","","Oui","Oui","","Oui","Oui","Oui","Oui","","Oui","Oui","Oui","Oui","",""
"SfaOui","10.756548","34.725641","PORT DE SFAOui","PORT DE SFAOui","SFAOui","","Oui","Oui","Oui","","Oui","Oui","","Oui","","Oui","Oui","Oui","Oui","",""
"SfaOui","10.703757","34.684178","CITE EL MOEZ","ROUTE DE GABES","SFAOui","","Oui","Oui","Oui","","Oui","Oui","Oui","","","Oui","Oui","Oui","Oui","",""
"SfaOui","10.496507","34.521475","MAHRES","CENTRE VILLE","MAHRES","","","Oui","Oui","","Oui","Oui","Oui","Oui","","Oui","Oui","Oui","Oui","",""
"SfaOui","10.733535","35.145373","EL HANCHA","ROUTE DE TUNIS GP1","EL HANCHA","","Oui","Oui","Oui","","Oui","Oui","","","","","","Oui","Oui","",""
"SfaOui","10.778943","34.759868","POUDRIERE SFAOui 2","ZONE INDUSTRIELLE POUDRIERE","SFAOui","","","Oui","Oui","","Oui","Oui","Oui","Oui","","Oui","Oui","Oui","Oui","",""
"SfaOui","10.778655","34.759484","POUDRIERE GPL "," POUDRIERE"," POUDRIERE","","","","Oui","","","","","","Oui","","","","","",""
"SfaOui","10.515321","34.730203","AGAREB","ROUTE DE BIR ALI BEN KHLIFA GP14","AGAREB","","Oui","Oui","Oui","","Oui","Oui","Oui","Oui","","Oui","Oui","Oui","Oui","",""
"SfaOui","10.787721","34.756615","SIDI MANSOUR","SIDI MANSOUR","SFAOui","","","Oui","Oui","","Oui","Oui","Oui","Oui","","Oui","Oui","Oui","Oui","",""
"SfaOui","10.724730","34.713888","CITE EL HABIB","CITE EL HABIB","SFAOui","","","","Oui","","","","","","Oui","","","","","",""
"Sidi Bouzid","9.491990","35.039053","SIDI BOUZID","CENTRE VILLE","SIDI BOUZID","Oui","","Oui","Oui","","Oui","Oui","Oui","","","Oui","Oui","Oui","Oui","",""
"Sidi Bouzid","9.418229","35.269856","JELMA","CENTRE VILLE","JELMA","Oui","Oui","Oui","Oui","","Oui","Oui","Oui","Oui","","Oui","Oui","Oui","Oui","",""
"Sidi Bouzid","9.142879","34.850111","BEN AOUN","ROUTE DE GAFSA","BEN AOUN","","Oui","Oui","Oui","","Oui","Oui","Oui","","","","","Oui","Oui","",""
"Sidi Bouzid","9.669132","35.638574","OULED HAFFOUZ","ROUTE DE SFAOui","OULED HAFFOUZ","","Oui","Oui","Oui","","Oui","Oui","Oui","","","Oui","Oui","Oui","Oui","",""
"Sidi Bouzid","9.560152","34.934223","SOUK JEDID","ROUTE DE MEKNASSI","SOUK JEDID","","","Oui","Oui","","Oui","Oui","Oui","","","Oui","Oui","Oui","Oui","",""
"Sidi Bouzid","9.796318","34.861066","REGUEB","ROUTE DE SFAOui","REGUEB","","Oui","Oui","Oui","","Oui","Oui","Oui","","","Oui","Oui","Oui","Oui","",""
"Sidi Bouzid","9.617538","34.608744","MEKNASSY","CENTRE VILLE","MEKNASSY","","Oui","Oui","Oui","","Oui","Oui","Oui","Oui","","Oui","Oui","Oui","Oui","",""
"Sidi Bouzid","9.284225","35.175697","CEBBELET OULED ASKAR","CEBBELET OULED ASKAR","SIDI BOUZID","Oui","Oui","Oui","Oui","","Oui","Oui","Oui","Oui","","Oui","Oui","Oui","Oui","",""
"Siliana","9.057125","35.646706","ROUHIA","CENTRE VILLE","ROUHIA","","","Oui","Oui","","Oui","Oui","Oui","Oui","","Oui","Oui","Oui","Oui","",""
"Siliana","9.374530","36.083756","SILIANA VILLE","CENTRE VILLE","SILIANA ","Oui","Oui","Oui","Oui","Oui","Oui","Oui","Oui","Oui","","Oui","Oui","Oui","Oui","Oui",""
"Siliana","9.327547","36.332690","GAAFOUR","ROUTE BOUARADA","GAAFOUR","","Oui","Oui","Oui","","Oui","Oui","Oui","Oui","","Oui","Oui","Oui","Oui","",""
"Siliana","9.569742","36.093635","BARGOU","CENTRE VILLE","BARGOU","","Oui","Oui","Oui","","Oui","Oui","Oui","","","","","Oui","","",""
"Siliana"," 9.630012","36.351596","BOUARADA","ROUTE D'EL FAHS","BOUARADA","","","Oui","Oui","","Oui","Oui","Oui","Oui","","Oui","Oui","Oui","Oui","",""
"Siliana","9.203055","35.855406","MAKTAR","CENTRE VILLE","MAKTAR","","","","Oui","","Oui","Oui","Oui","","","Oui","Oui","Oui","Oui","",""
"Sousse","10.640512","35.822955","SOUSSE MOHAMED ALI","AV. MOHAMED ALI","SOUSSE","","","Oui","Oui","","Oui","Oui","Oui","Oui","","Oui","Oui","Oui","Oui","",""
"Sousse","10.327015","36.041066","DAR BEL OUAER","ROUTE KAIROUAN","DAR BEL OUAER","","Oui","Oui","Oui","","Oui","Oui","Oui","","","Oui","Oui","Oui","Oui","",""
"Sousse","10.401457","35.902599","BEL AOUM","ROUTE KONDAR","BEL AOUM","","","","Oui","","Oui","Oui","Oui","","","","","Oui","","",""
"Sousse","10.300063","35.932220","KONDAR","CENTRE VILLE","KONDAR","","Oui","Oui","Oui","","Oui","Oui","Oui","","","Oui","Oui","Oui","Oui","",""
"Sousse","10.633222","35.831487","SOUSSE REPUBLIQUE","AV. REPUBLIQUE","SOUSSE","","","Oui","Oui","","Oui","Oui","Oui","","","Oui","Oui","Oui","Oui","",""
"Sousse","10.574112","35.732382","M'SAKEN ","CENTRE VILLE","M'SAKEN ","","Oui","Oui","Oui","","Oui","Oui","Oui","","","Oui","Oui","Oui","Oui","",""
"Sousse","10.550723","35.869034","KALAA EL KEBIRA","CENTRE VILLE","KALAA EL KEBIRA","","Oui","Oui","Oui","","Oui","Oui","Oui","Oui","","Oui","Oui","Oui","Oui","",""
"Sousse","10.462899","35.963223","SIDI BOUALI","ROUTE SOUSSE GP1","SIDI BOUALI","","Oui","Oui","Oui","","Oui","Oui","Oui","Oui","","Oui","","Oui","Oui","",""
"Sousse","10.596505","35.886673","KANTAOUI","ZONE TOURISTIQUE","KANTAOUI","","Oui","Oui","Oui","","Oui","Oui","","","Oui","Oui","","Oui","Oui","",""
"Sousse","10.597621","35.858809","HAMMAM SOUSSE","CENTRE VILLE","HAMMAM SOUSSE","","","Oui","Oui","","Oui","Oui","Oui","Oui","","Oui","Oui","Oui","Oui","",""
"Sousse","10.425772","36.247465","SIDI KHELIFA"," AUTOROUTE A1 PK72","SIDI KHLIFA","Oui","Oui","Oui","Oui","Oui","Oui","Oui","","","Oui","","","Oui","Oui","",""
"Sousse","10.304792","35.680782","SIDI EL HENI","CENTRE VILLE","SIDI EL HENI","","Oui","Oui","Oui","","Oui","Oui","","","","Oui","","Oui","Oui","",""
"Sousse","10.594874","35.843863","SAHLOUL","SAHLOUL","HAMMAM SOUSSE","Oui","Oui","Oui","Oui","","Oui","Oui","","Oui","","Oui","","Oui","Oui","",""
"Sousse","10.628718","35.813833","SOUK EL AHAD","SOUK EL AHAD - ROUTE MSAKEN ","SOUSSE","Oui","Oui","Oui","Oui","Oui","Oui","Oui","","Oui","Oui","Oui","","Oui","Oui","",""
"Tataouine","10.450658","32.931642","TATAOUINE VILLE","CENTRE VILLE","TATAOUINE ","","","Oui","Oui","","Oui","Oui","Oui","Oui","","Oui","Oui","Oui","Oui","",""
"Tataouine","10.442723","33.177564","BIR LAHMAR","ROUTE DE TATAOUINE","BIR LAHMAR","","","Oui","Oui","","Oui","Oui","Oui","Oui","","Oui","Oui","Oui","Oui","",""
"Tataouine","10.398559","32.319943","REMADA","ROUTE DE TATAOUINE","REMADA","","","","Oui","","Oui","Oui","Oui","Oui","","","Oui","Oui","Oui","",""
"Tataouine","10.811979","33.006290","SMAR","ROUTE DE TATAOUINE","SMAR","","Oui","Oui","Oui","","Oui","Oui","Oui","Oui","","Oui","Oui","Oui","Oui","",""
"Tataouine","10.460758","32.968707","NOUVELLE TATAOUINE","ROUTE DE MEDENINE","NOUVELLE TATAOUINE","","Oui","Oui","Oui","","Oui","Oui","","Oui","","Oui","","Oui","Oui","",""
"Tozeur","8.136207","33.923771","TOZEUR VILLE","CENTRE VILLE","TOZEUR ","","","","Oui","","Oui","Oui","Oui","Oui","","","","Oui","Oui","",""
"Tozeur","8.208058","33.978124","DEGACHE","ROUTE DE TOZEUR","DEGACHE","Oui","Oui","Oui","Oui","","Oui","Oui","Oui","Oui","","Oui","","Oui","Oui","",""
"Tozeur","8.141658","33.936988","ROUTE DE GAFSA ","ROUTE DE GAFSA ","TOZEUR","","","Oui","Oui","","Oui","Oui","Oui","Oui","Oui","Oui","Oui","Oui","Oui","",""
"Tozeur","7.895107","33.873760","NAFTA","ROUTE DE TOZEUR","NAFTA","","Oui","Oui","Oui","","Oui","Oui","Oui","Oui","","Oui","Oui","Oui","Oui","",""
"Tunis","10.188331","36.800018","AV.REPUBLIQUE","AV.REPUBLIQUE","TUNIS","","Oui","Oui","Oui","","Oui","Oui","","","","Oui","","Oui","Oui","",""
"Tunis","10.308082","36.821180","LA GOULETTE","CENTRE VILLE","LA GOULETTE","","Oui","Oui","Oui","","Oui","Oui","Oui","Oui","","Oui","Oui","Oui","Oui","Oui",""
"Tunis","10.150718","36.811884","AV.BOUGATFA ","Av.BOUGATFA - BARDO","TUNIS","Oui","","Oui","Oui","","Oui","Oui","","","","Oui","Oui","Oui","Oui","",""
"Tunis","10.167655","36.813425","AV.HEDI SAIDI","AV.HEDI SAIDI","TUNIS","","","Oui","Oui","","Oui","Oui","Oui","Oui","","Oui","Oui","Oui","Oui","",""
"Tunis","10.183053","36.790398","AV.CARTHAGE","AV.CARTHAGE","TUNIS","","Oui","Oui","Oui","","Oui","Oui","","","","Oui","Oui","Oui","Oui","",""
"Tunis","10.341823","36.871561","SIDI BOUSAID","CENTRE VILLE","SIDI BOUSAID","Oui","","Oui","Oui","","Oui","Oui","","Oui","","Oui","Oui","Oui","Oui","Oui",""
"Tunis","10.182881","36.817844","AV.MOHAMED V","AV.MOHAMED V","TUNIS","","Oui","Oui","Oui","","Oui","Oui","","","","Oui","","Oui","Oui","","Oui"
"Tunis","10.192339","36.786749","SORTIE SUD Z4","SORTIE SUD Z4"," TUNIS","","Oui","Oui","Oui","","Oui","Oui","","","","","","Oui","Oui","",""
"Tunis","10.204851","36.752451","ENTREE SUD","ENTREE SUD (VIA AUTOROUTE)","TUNIS","Oui","Oui","Oui","Oui","","Oui","Oui","","","","Oui","","Oui","Oui","",""
"Tunis","10.222129","36.834513","BERGES DU LAC","ROUTE DE LA MARSA GP9","TUNIS","","Oui","Oui","Oui","","Oui","Oui","","","","Oui","","Oui","Oui","",""
"Tunis","10.194920","36.839866","CITE OLYMPIQUE","CITE OLYMPIQUE","TUNIS","","Oui","Oui","Oui","Oui","Oui","Oui","","","","Oui","","Oui","Oui","",""
"Tunis","10.119466","36.794426","EZZOUHOUR","BOULEVARD MOHAMED BOUAZIZI-CITE EZZOUHOUR","TUNIS","Oui","Oui","Oui","Oui","","Oui","Oui","Oui","Oui","","Oui","Oui","Oui","Oui","",""
"Tunis","10.293901","36.896132","GAMMARTH","ROUTE DE RAOUED","GAMMARTH","Oui","Oui","Oui","Oui","Oui","Oui","Oui","","","","Oui","","Oui","Oui","",""
"Tunis","10.202877","36.772518","DJEBEL JELLOUD","ROUTE DE BEN AROUS","DJEBEL JELLOUD","","","Oui","Oui","","Oui","Oui","Oui","","","Oui","Oui","Oui","Oui","",""
"Tunis","10.257061","36.854476","AL AOUINA","DAR FADHAL","AL AOUINA","Oui","","Oui","Oui","","Oui","Oui","","","","Oui","","Oui","Oui","",""
"Zaghouan","10.142097","36.403668","ZAGHOUAN","CENTRE VILLE","ZAGHOUAN ","","Oui","Oui","Oui","","Oui","Oui","Oui","Oui","","Oui","Oui","Oui","Oui","",""
"Zaghouan","9.904977","36.377395","EL FAHS ","CENTRE VILLE","EL FAHS ","","Oui","Oui","Oui","","Oui","Oui","Oui","Oui","","Oui","Oui","Oui","Oui","",""
"Zaghouan","9.957376","36.511977","BIR M'CHERGA","ROUTE GP3","BIR M'CHERGA","","Oui","Oui","Oui","","Oui","Oui","Oui","","","Oui","Oui","Oui","Oui","",""
"Zaghouan","10.215483","36.360960","HAMMAM ZRIBA","ROUTE MC 28","HAMMAM ZRIBA","","Oui","Oui","Oui","","Oui","Oui","Oui","","","Oui","Oui","Oui","Oui","",""
"Zaghouan","10.061099","36.113775","ENNADHOUR","ROUTE D'ENFIDHA","ENNADHOUR","","","Oui","Oui","","Oui","Oui","Oui","Oui","","Oui","Oui","Oui","Oui","",""
"Nouvelles Stations","10.614714","35.567281","BORJINE","AUTOROUTE A1 PK 156 DIRECTION TUNIS","BORJINE (MOUNASTIR)","Oui","Oui","Oui","Oui","Oui","Oui","Oui","","","","","","Oui","Oui","",""
"Nouvelles Stations","10.650333","35.258456","PK192 EL JEM","AUTOROUTE A1 PK 192 DIRECTION SFAOui","EL JEM (MAHDIA)","Oui","Oui","","Oui","Oui","Oui","Oui","","","","","","Oui","Oui","",""
"Nouvelles Stations"," 9.414017","34.573108","MENZEL BOUZAIENE","MENZEL BOUZAIENE","MENZEL BOUZAIENE (SIDI BOUZID)","","Oui","Oui","Oui","","Oui","Oui","Oui","","","Oui","","Oui","Oui","",""
"Nouvelles Stations","10.841384","34.871713","EL BDERNA","CENTRE VILLE","EL BDERNA (SFAOui)","","Oui","Oui","Oui","","Oui","Oui","Oui","Oui","","Oui","","Oui","Oui","",""
"Nouvelles Stations","10.656295","35.028344","BOUJARBOUA","CENTRE VILLE","BOUJARBOUA (SFAOui)","","Oui","Oui","Oui","","Oui","Oui","Oui","Oui","","Oui","","Oui","Oui","",""
"Nouvelles Stations","7.612003","33.743777","HAZOUA","CENTRE VILLE","HAZOUA (TOZEUR)","","Oui","Oui","Oui","Oui","Oui","Oui","","Oui","","Oui","","Oui","Oui","",""
"Nouvelles Stations","8.955398","33.714965","KEBELI GPL","KEBELI","KEBELI","","","","Oui","","Oui","Oui","","Oui","Oui","","Oui","Oui","Oui","",""
"Nouvelles Stations","10.305117","36.692188","MORNAG","CENTRE VILLE","MORNAG (BEN AROUS)","","Oui","Oui","Oui","","Oui","Oui","","","","Oui","","Oui","Oui","",""
